     3.02           N: GNSS NAV DATA    R: GLONASS          RINEX VERSION / TYPE
Spider v7.5.1.8670  SMO                 20211209 002223 UTC PGM / RUN BY / DATE
    18    18  2185     7                                    LEAP SECONDS
                                                            END OF HEADER
R09 2021 12 08 16 45 00 2.770218998194D-05 1.818989403546D-12 3.186000000000D+05
     3.031556640625D+03-1.876773834229D-01-1.862645149231D-09 0.000000000000D+00
     2.175424658203D+04 1.760761260986D+00-0.000000000000D+00-2.000000000000D+00
     1.292686035156D+04-2.928971290588D+00-0.000000000000D+00 0.000000000000D+00
R20 2021 12 08 16 45 00-6.081815809011D-05-0.000000000000D+00 3.186000000000D+05
     1.334245214844D+04-9.709835052490D-01-9.313225746155D-10 0.000000000000D+00
     1.870989746094D+04-1.183603286743D+00-0.000000000000D+00 2.000000000000D+00
     1.104623730469D+04 3.184660911560D+00-9.313225746155D-10 0.000000000000D+00
R16 2021 12 08 16 45 00-2.643465995789D-05 0.000000000000D+00 3.186000000000D+05
    -5.149584472656D+03 1.989870071411D-01-1.862645149231D-09 0.000000000000D+00
     2.485783642578D+04-4.070405960083D-01-0.000000000000D+00-1.000000000000D+00
    -3.186414062500D+03-3.509616851807D+00 1.862645149231D-09 0.000000000000D+00
R19 2021 12 08 16 45 00-1.699319109321D-04-9.094947017729D-13 3.186000000000D+05
    -3.332371093750D+03-2.299778938293D+00-2.793967723846D-09 0.000000000000D+00
     1.070012451172D+04-2.142068862915D+00 9.313225746155D-10 3.000000000000D+00
     2.292098291016D+04 6.649742126465D-01-0.000000000000D+00 0.000000000000D+00
R03 2021 12 08 16 45 00 4.780944436789D-05 9.094947017729D-13 3.186000000000D+05
    -2.070397607422D+04 1.962243080139D+00-2.793967723846D-09 0.000000000000D+00
    -2.322607421875D+01-5.774354934692D-01 1.862645149231D-09 5.000000000000D+00
     1.497839697266D+04 2.712355613708D+00 0.000000000000D+00 0.000000000000D+00
R18 2021 12 08 16 45 00 9.979959577322D-05 9.094947017729D-13 3.186000000000D+05
    -1.547012255859D+04-2.184579849243D+00-2.793967723846D-09 0.000000000000D+00
    -1.280152832031D+03-1.713711738586D+00 1.862645149231D-09-3.000000000000D+00
     2.027718945313D+04-1.772336006165D+00 0.000000000000D+00 0.000000000000D+00
R15 2021 12 08 16 45 00 9.973347187042D-05-0.000000000000D+00 3.186000000000D+05
    -1.142991503906D+04 5.290155410767D-01-0.000000000000D+00 0.000000000000D+00
     1.234162255859D+04-2.574712753296D+00-0.000000000000D+00 0.000000000000D+00
    -1.915859423828D+04-1.971778869629D+00 2.793967723846D-09 0.000000000000D+00
R04 2021 12 08 16 45 00 1.178979873657D-04 1.818989403546D-12 3.186000000000D+05
    -2.376207324219D+04-1.049718856812D-01-2.793967723846D-09 0.000000000000D+00
     9.205801269531D+03 2.339830398560D-01 9.313225746155D-10 6.000000000000D+00
    -1.279884765625D+03 3.573512077332D+00 2.793967723846D-09 0.000000000000D+00
R05 2021 12 08 16 45 00 8.384324610233D-05 9.094947017729D-13 3.189300000000D+05
    -1.378820166016D+04-2.129602432251D+00-9.313225746155D-10 0.000000000000D+00
     1.330701464844D+04 8.977594375610D-01-0.000000000000D+00 1.000000000000D+00
    -1.684877294922D+04 2.448420524597D+00 2.793967723846D-09 0.000000000000D+00
R10 2021 12 08 17 15 00-7.780175656080D-05-0.000000000000D+00 3.204000000000D+05
     9.135402832031D+03 7.784843444824D-03-1.862645149231D-09 0.000000000000D+00
     1.318432861328D+04 2.718399047852D+00 0.000000000000D+00-7.000000000000D+00
     1.985209326172D+04-1.800951004028D+00-9.313225746155D-10 0.000000000000D+00
R09 2021 12 08 17 15 00 2.770498394966D-05 1.818989403546D-12 3.204000000000D+05
     2.961903808594D+03 7.681083679199D-02-1.862645149231D-09 0.000000000000D+00
     2.425292382813D+04 9.896612167358D-01-0.000000000000D+00-2.000000000000D+00
     7.221808105469D+03-3.368758201599D+00 9.313225746155D-10 0.000000000000D+00
R20 2021 12 08 17 15 00-6.081908941269D-05-0.000000000000D+00 3.204000000000D+05
     1.090732568359D+04-1.731308937073D+00-1.862645149231D-09 0.000000000000D+00
     1.632449951172D+04-1.419938087463D+00 0.000000000000D+00 2.000000000000D+00
     1.627697363281D+04 2.589570045471D+00-9.313225746155D-10 0.000000000000D+00
R16 2021 12 08 17 15 00-2.643372863531D-05 0.000000000000D+00 3.204000000000D+05
    -4.805675781250D+03 1.436376571655D-01-9.313225746155D-10 0.000000000000D+00
     2.334472802734D+04-1.263346672058D+00-0.000000000000D+00-1.000000000000D+00
    -9.300723144531D+03-3.240338325500D+00 2.793967723846D-09 0.000000000000D+00
R19 2021 12 08 17 15 00-1.699337735772D-04-9.094947017729D-13 3.204000000000D+05
    -7.809856933594D+03-2.634474754333D+00-2.793967723846D-09 0.000000000000D+00
     7.132724121094D+03-1.786996841431D+00 1.862645149231D-09 3.000000000000D+00
     2.321716650391D+04-3.380384445190D-01-0.000000000000D+00 0.000000000000D+00
R03 2021 12 08 17 15 00 4.781223833561D-05 9.094947017729D-13 3.204000000000D+05
    -1.676546923828D+04 2.367710113525D+00-2.793967723846D-09 0.000000000000D+00
    -1.550052734375D+03-1.128312110901D+00 1.862645149231D-09 5.000000000000D+00
     1.922196093750D+04 1.972266197205D+00-0.000000000000D+00 0.000000000000D+00
R05 2021 12 08 17 15 00 8.384417742491D-05 9.094947017729D-13 3.204000000000D+05
    -1.695302880859D+04-1.369727134705D+00-1.862645149231D-09 0.000000000000D+00
     1.494932470703D+04 8.844919204712D-01 0.000000000000D+00 1.000000000000D+00
    -1.184783154297D+04 3.072107315063D+00 2.793967723846D-09 0.000000000000D+00
R18 2021 12 08 17 15 00 9.980332106352D-05 9.094947017729D-13 3.204000000000D+05
    -1.925214355469D+04-1.968445777893D+00-2.793967723846D-09 0.000000000000D+00
    -3.793148925781D+03-1.073933601379D+00 1.862645149231D-09-3.000000000000D+00
     1.634694775391D+04-2.566319465637D+00 0.000000000000D+00 0.000000000000D+00
R04 2021 12 08 17 15 00 1.179017126560D-04 1.818989403546D-12 3.204000000000D+05
    -2.320548486328D+04 7.028722763062D-01-2.793967723846D-09 0.000000000000D+00
     9.304510742188D+03-1.602773666382D-01 1.862645149231D-09 6.000000000000D+00
     5.118852539063D+03 3.490079879761D+00 1.862645149231D-09 0.000000000000D+00
R10 2021 12 08 17 45 00-7.780175656080D-05-0.000000000000D+00 3.222000000000D+05
     9.473790039063D+03 3.414211273193D-01-1.862645149231D-09 0.000000000000D+00
     1.760100390625D+04 2.149748802185D+00 0.000000000000D+00-7.000000000000D+00
     1.588636181641D+04-2.576726913452D+00-0.000000000000D+00 0.000000000000D+00
R09 2021 12 08 17 45 00 2.770777791739D-05 1.818989403546D-12 3.222000000000D+05
     3.174131835938D+03 1.194725036621D-01-1.862645149231D-09 0.000000000000D+00
     2.525566455078D+04 1.168270111084D-01 0.000000000000D+00-2.000000000000D+00
     9.564213867188D+02-3.547414779663D+00 9.313225746155D-10 0.000000000000D+00
R20 2021 12 08 17 45 00-6.082095205784D-05-0.000000000000D+00 3.222000000000D+05
     7.157664062500D+03-2.412059783936D+00-1.862645149231D-09 0.000000000000D+00
     1.376525732422D+04-1.379302978516D+00 9.313225746155D-10 2.000000000000D+00
     2.024852246094D+04 1.794713973999D+00-9.313225746155D-10 0.000000000000D+00
R16 2021 12 08 17 45 00-2.643372863531D-05 0.000000000000D+00 3.222000000000D+05
    -4.764662109375D+03-1.306352615356D-01-9.313225746155D-10 0.000000000000D+00
     2.038152880859D+04-2.000682830811D+00-0.000000000000D+00-1.000000000000D+00
    -1.470215869141D+04-2.722566604614D+00 2.793967723846D-09 0.000000000000D+00
R05 2021 12 08 17 45 00 8.384604007006D-05 9.094947017729D-13 3.222000000000D+05
    -1.869221923828D+04-5.649690628052D-01-1.862645149231D-09 0.000000000000D+00
     1.633431054688D+04 6.113147735596D-01 9.313225746155D-10 1.000000000000D+00
    -5.931976562500D+03 3.458427429199D+00 2.793967723846D-09 0.000000000000D+00
R19 2021 12 08 17 45 00-1.699365675449D-04-9.094947017729D-13 3.222000000000D+05
    -1.265091357422D+04-2.694650650024D+00-2.793967723846D-09 0.000000000000D+00
     4.363596679688D+03-1.271627426147D+00 2.793967723846D-09 3.000000000000D+00
     2.171964599609D+04-1.315113067627D+00-0.000000000000D+00 0.000000000000D+00
R03 2021 12 08 17 45 00 4.781410098076D-05 9.094947017729D-13 3.222000000000D+05
    -1.235395214844D+04 2.485160827637D+00-1.862645149231D-09 0.000000000000D+00
    -4.085883789063D+03-1.680265426636D+00 1.862645149231D-09 5.000000000000D+00
     2.198721386719D+04 1.080328941345D+00-9.313225746155D-10 0.000000000000D+00
R18 2021 12 08 17 45 00 9.980704635382D-05 9.094947017729D-13 3.222000000000D+05
    -2.238534667969D+04-1.468569755554D+00-1.862645149231D-09 0.000000000000D+00
    -5.164343750000D+03-4.638805389404D-01 1.862645149231D-09-3.000000000000D+00
     1.115738525391D+04-3.162564277649D+00 0.000000000000D+00 0.000000000000D+00
R04 2021 12 08 17 45 00 1.179045066237D-04 1.818989403546D-12 3.222000000000D+05
    -2.133498193359D+04 1.339644432068D+00-2.793967723846D-09 0.000000000000D+00
     8.519631347656D+03-7.353219985962D-01 2.793967723846D-09 6.000000000000D+00
     1.112234570313D+04 3.137249946594D+00 9.313225746155D-10 0.000000000000D+00
R10 2021 12 08 18 15 00-7.780175656080D-05 0.000000000000D+00 3.240000000000D+05
     1.024642871094D+04 4.794492721558D-01-1.862645149231D-09 0.000000000000D+00
     2.080804492188D+04 1.389748573303D+00 0.000000000000D+00-7.000000000000D+00
     1.069579541016D+04-3.153159141541D+00 0.000000000000D+00 0.000000000000D+00
R09 2021 12 08 18 15 00 2.771057188511D-05 1.818989403546D-12 3.240000000000D+05
     3.249379394531D+03-7.407188415527D-02-1.862645149231D-09 0.000000000000D+00
     2.468089062500D+04-7.437810897827D-01 0.000000000000D+00-2.000000000000D+00
    -5.383185546875D+03-3.450636863708D+00 1.862645149231D-09 0.000000000000D+00
